CCSDS_OMM_VERS = 2.0
CREATION_DATE  = 
ORIGINATOR     = 

OBJECT_NAME    = ENVISAT
OBJECT_ID      = 2002-009A
CENTER_NAME    = EARTH
REF_FRAME      = TEME
TIME_SYSTEM    = UTC
MEAN_ELEMENT_THEORY = SGP/SGP4

EPOCH          = 2025-11-22T11:20:24.794016
MEAN_MOTION    = 14.38988440
ECCENTRICITY   = .0001239
INCLINATION    = 98.3569
RA_OF_ASC_NODE = 277.7301
ARG_OF_PERICENTER = 81.1845
MEAN_ANOMALY   = 30.6655

EPHEMERIS_TYPE = 0
CLASSIFICATION_TYPE = U
NORAD_CAT_ID   = 27386
ELEMENT_SET_NO = 999
REV_AT_EPOCH   = 24375
BSTAR          = .65762E-4
MEAN_MOTION_DOT = .16E-5
MEAN_MOTION_DDOT = 0

CCSDS_OMM_VERS = 2.0
CREATION_DATE  = 
ORIGINATOR     = 

OBJECT_NAME    = IDEFIX & ARIANE 42P R/B
OBJECT_ID      = 2002-021B
CENTER_NAME    = EARTH
REF_FRAME      = TEME
TIME_SYSTEM    = UTC
MEAN_ELEMENT_THEORY = SGP/SGP4

EPOCH          = 2025-11-22T10:40:54.912864
MEAN_MOTION    = 14.30928900
ECCENTRICITY   = .0012427
INCLINATION    = 98.5757
RA_OF_ASC_NODE = 261.4026
ARG_OF_PERICENTER = 138.7919
MEAN_ANOMALY   = 221.4205

EPHEMERIS_TYPE = 0
CLASSIFICATION_TYPE = U
NORAD_CAT_ID   = 27422
ELEMENT_SET_NO = 999
REV_AT_EPOCH   = 22868
BSTAR          = .1543E-3
MEAN_MOTION_DOT = .362E-5
MEAN_MOTION_DDOT = 0

CCSDS_OMM_VERS = 2.0
CREATION_DATE  = 
ORIGINATOR     = 

OBJECT_NAME    = AQUA
OBJECT_ID      = 2002-022A
CENTER_NAME    = EARTH
REF_FRAME      = TEME
TIME_SYSTEM    = UTC
MEAN_ELEMENT_THEORY = SGP/SGP4

EPOCH          = 2025-11-22T12:08:46.609728
MEAN_MOTION    = 14.61739369
ECCENTRICITY   = .0000596
INCLINATION    = 98.4008
RA_OF_ASC_NODE = 287.0606
ARG_OF_PERICENTER = 77.4529
MEAN_ANOMALY   = 34.0280

EPHEMERIS_TYPE = 0
CLASSIFICATION_TYPE = U
NORAD_CAT_ID   = 27424
ELEMENT_SET_NO = 999
REV_AT_EPOCH   = 25307
BSTAR          = .26481E-3
MEAN_MOTION_DOT = .1271E-4
MEAN_MOTION_DDOT = 0

CCSDS_OMM_VERS = 2.0
CREATION_DATE  = 
ORIGINATOR     = 

OBJECT_NAME    = CZ-4B R/B
OBJECT_ID      = 2002-024C
CENTER_NAME    = EARTH
REF_FRAME      = TEME
TIME_SYSTEM    = UTC
MEAN_ELEMENT_THEORY = SGP/SGP4

EPOCH          = 2025-11-22T03:08:44.371968
MEAN_MOTION    = 14.14521736
ECCENTRICITY   = .0049572
INCLINATION    = 98.9029
RA_OF_ASC_NODE = 14.9717
ARG_OF_PERICENTER = 329.4831
MEAN_ANOMALY   = 84.0906

EPHEMERIS_TYPE = 0
CLASSIFICATION_TYPE = U
NORAD_CAT_ID   = 27432
ELEMENT_SET_NO = 999
REV_AT_EPOCH   = 21403
BSTAR          = .59076E-4
MEAN_MOTION_DOT = .7E-6
MEAN_MOTION_DDOT = 0

CCSDS_OMM_VERS = 2.0
CREATION_DATE  = 
ORIGINATOR     = 

OBJECT_NAME    = MIDORI II (ADEOS-II)
OBJECT_ID      = 2002-056A
CENTER_NAME    = EARTH
REF_FRAME      = TEME
TIME_SYSTEM    = UTC
MEAN_ELEMENT_THEORY = SGP/SGP4

EPOCH          = 2025-11-22T08:13:32.824992
MEAN_MOTION    = 14.29185851
ECCENTRICITY   = .00009
INCLINATION    = 98.7606
RA_OF_ASC_NODE = 279.1954
ARG_OF_PERICENTER = 22.8554
MEAN_ANOMALY   = 337.2668

EPHEMERIS_TYPE = 0
CLASSIFICATION_TYPE = U
NORAD_CAT_ID   = 27597
ELEMENT_SET_NO = 999
REV_AT_EPOCH   = 19496
BSTAR          = .15575E-3
MEAN_MOTION_DOT = .35E-5
MEAN_MOTION_DDOT = 0

CCSDS_OMM_VERS = 2.0
CREATION_DATE  = 
ORIGINATOR     = 

OBJECT_NAME    = H-2A R/B
OBJECT_ID      = 2002-056E
CENTER_NAME    = EARTH
REF_FRAME      = TEME
TIME_SYSTEM    = UTC
MEAN_ELEMENT_THEORY = SGP/SGP4

EPOCH          = 2025-11-22T09:20:07.230048
MEAN_MOTION    = 14.33654040
ECCENTRICITY   = .0071304
INCLINATION    = 98.3035
RA_OF_ASC_NODE = 285.9597
ARG_OF_PERICENTER = 120.8228
MEAN_ANOMALY   = 31.5029

EPHEMERIS_TYPE = 0
CLASSIFICATION_TYPE = U
NORAD_CAT_ID   = 27601
ELEMENT_SET_NO = 999
REV_AT_EPOCH   = 19873
BSTAR          = .13086E-3
MEAN_MOTION_DOT = .332E-5
MEAN_MOTION_DDOT = 0

CCSDS_OMM_VERS = 2.0
CREATION_DATE  = 
ORIGINATOR     = 

OBJECT_NAME    = CZ-4B R/B
OBJECT_ID      = 2003-049C
CENTER_NAME    = EARTH
REF_FRAME      = TEME
TIME_SYSTEM    = UTC
MEAN_ELEMENT_THEORY = SGP/SGP4

EPOCH          = 2025-11-21T23:07:22.147392
MEAN_MOTION    = 14.54881960
ECCENTRICITY   = .0047815
INCLINATION    = 98.6772
RA_OF_ASC_NODE = 311.7443
ARG_OF_PERICENTER = 199.2045
MEAN_ANOMALY   = 160.7350

EPHEMERIS_TYPE = 0
CLASSIFICATION_TYPE = U
NORAD_CAT_ID   = 28059
ELEMENT_SET_NO = 999
REV_AT_EPOCH   = 17093
BSTAR          = .10564E-3
MEAN_MOTION_DOT = .409E-5
MEAN_MOTION_DDOT = 0

CCSDS_OMM_VERS = 2.0
CREATION_DATE  = 
ORIGINATOR     = 

OBJECT_NAME    = CZ-2C R/B
OBJECT_ID      = 2004-012C
CENTER_NAME    = EARTH
REF_FRAME      = TEME
TIME_SYSTEM    = UTC
MEAN_ELEMENT_THEORY = SGP/SGP4

EPOCH          = 2025-11-22T03:23:09.268800
MEAN_MOTION    = 15.53669823
ECCENTRICITY   = .001807
INCLINATION    = 97.7451
RA_OF_ASC_NODE = 17.0893
ARG_OF_PERICENTER = 349.8374
MEAN_ANOMALY   = 10.2510

EPHEMERIS_TYPE = 0
CLASSIFICATION_TYPE = U
NORAD_CAT_ID   = 28222
ELEMENT_SET_NO = 999
REV_AT_EPOCH   = 18752
BSTAR          = .6064E-3
MEAN_MOTION_DOT = .39031E-3
MEAN_MOTION_DDOT = 0

CCSDS_OMM_VERS = 2.0
CREATION_DATE  = 
ORIGINATOR     = 

OBJECT_NAME    = SL-16 R/B
OBJECT_ID      = 2004-021B
CENTER_NAME    = EARTH
REF_FRAME      = TEME
TIME_SYSTEM    = UTC
MEAN_ELEMENT_THEORY = SGP/SGP4

EPOCH          = 2025-11-22T11:14:13.324128
MEAN_MOTION    = 14.14580061
ECCENTRICITY   = .0006218
INCLINATION    = 71.0003
RA_OF_ASC_NODE = 97.5031
ARG_OF_PERICENTER = 221.7326
MEAN_ANOMALY   = 138.3322

EPHEMERIS_TYPE = 0
CLASSIFICATION_TYPE = U
NORAD_CAT_ID   = 28353
ELEMENT_SET_NO = 999
REV_AT_EPOCH   = 10767
BSTAR          = .14022E-3
MEAN_MOTION_DOT = .222E-5
MEAN_MOTION_DDOT = 0

CCSDS_OMM_VERS = 2.0
CREATION_DATE  = 
ORIGINATOR     = 

OBJECT_NAME    = CZ-4B R/B
OBJECT_ID      = 2004-035C
CENTER_NAME    = EARTH
REF_FRAME      = TEME
TIME_SYSTEM    = UTC
MEAN_ELEMENT_THEORY = SGP/SGP4

EPOCH          = 2025-11-22T01:15:10.615680
MEAN_MOTION    = 15.26908922
ECCENTRICITY   = .003343
INCLINATION    = 97.3627
RA_OF_ASC_NODE = 356.6767
ARG_OF_PERICENTER = 353.3393
MEAN_ANOMALY   = 6.7397

EPHEMERIS_TYPE = 0
CLASSIFICATION_TYPE = U
NORAD_CAT_ID   = 28415
ELEMENT_SET_NO = 999
REV_AT_EPOCH   = 16347
BSTAR          = .34543E-3
MEAN_MOTION_DOT = .9205E-4
MEAN_MOTION_DDOT = 0

CCSDS_OMM_VERS = 2.0
CREATION_DATE  = 
ORIGINATOR     = 

OBJECT_NAME    = CZ-2C R/B
OBJECT_ID      = 2004-046B
CENTER_NAME    = EARTH
REF_FRAME      = TEME
TIME_SYSTEM    = UTC
MEAN_ELEMENT_THEORY = SGP/SGP4

EPOCH          = 2025-11-22T08:14:40.255008
MEAN_MOTION    = 14.26927528
ECCENTRICITY   = .0140663
INCLINATION    = 98.1970
RA_OF_ASC_NODE = 242.9913
ARG_OF_PERICENTER = 112.1199
MEAN_ANOMALY   = 249.4983

EPHEMERIS_TYPE = 0
CLASSIFICATION_TYPE = U
NORAD_CAT_ID   = 28480
ELEMENT_SET_NO = 999
REV_AT_EPOCH   = 9319
BSTAR          = .95061E-4
MEAN_MOTION_DOT = .217E-5
MEAN_MOTION_DDOT = 0

CCSDS_OMM_VERS = 2.0
CREATION_DATE  = 
ORIGINATOR     = 

OBJECT_NAME    = ARIANE 5 R/B
OBJECT_ID      = 2004-049H
CENTER_NAME    = EARTH
REF_FRAME      = TEME
TIME_SYSTEM    = UTC
MEAN_ELEMENT_THEORY = SGP/SGP4

EPOCH          = 2025-11-22T08:53:49.492608
MEAN_MOTION    = 14.84948660
ECCENTRICITY   = .0084222
INCLINATION    = 98.2520
RA_OF_ASC_NODE = 125.9239
ARG_OF_PERICENTER = 339.6997
MEAN_ANOMALY   = 20.0875

EPHEMERIS_TYPE = 0
CLASSIFICATION_TYPE = U
NORAD_CAT_ID   = 28499
ELEMENT_SET_NO = 999
REV_AT_EPOCH   = 12986
BSTAR          = .11833E-3
MEAN_MOTION_DOT = .1008E-4
MEAN_MOTION_DDOT = 0

