ENVISAT                 
1 27386U 02009A   25326.47250919  .00000160  00000+0  65762-4 0  9998
2 27386  98.3569 277.7301 0001239  81.1845  30.6655 14.38988440243752
IDEFIX & ARIANE 42P R/B 
1 27422U 02021B   25326.44508001  .00000362  00000+0  15430-3 0  9998
2 27422  98.5757 261.4026 0012427 138.7919 221.4205 14.30928900228683
AQUA                    
1 27424U 02022A   25326.50609502  .00001271  00000+0  26481-3 0  9994
2 27424  98.4008 287.0606 0000596  77.4529  34.0280 14.61739369253076
CZ-4B R/B               
1 27432U 02024C   25326.13106912  .00000070  00000+0  59076-4 0  9994
2 27432  98.9029  14.9717 0049572 329.4831  84.0906 14.14521736214034
MIDORI II (ADEOS-II)    
1 27597U 02056A   25326.34274103  .00000350  00000+0  15575-3 0  9998
2 27597  98.7606 279.1954 0000900  22.8554 337.2668 14.29185851194968
H-2A R/B                
1 27601U 02056E   25326.38897257  .00000332  00000+0  13086-3 0  9994
2 27601  98.3035 285.9597 0071304 120.8228  31.5029 14.33654040198737
CZ-4B R/B               
1 28059U 03049C   25325.96345078  .00000409  00000+0  10564-3 0  9990
2 28059  98.6772 311.7443 0047815 199.2045 160.7350 14.54881960170931
CZ-2C R/B               
1 28222U 04012C   25326.14107950  .00039031  00000+0  60640-3 0  9992
2 28222  97.7451  17.0893 0018070 349.8374  10.2510 15.53669823187523
SL-16 R/B               
1 28353U 04021B   25326.46820977  .00000222  00000+0  14022-3 0  9996
2 28353  71.0003  97.5031 0006218 221.7326 138.3322 14.14580061107672
CZ-4B R/B               
1 28415U 04035C   25326.05220620  .00009205  00000+0  34543-3 0  9994
2 28415  97.3627 356.6767 0033430 353.3393   6.7397 15.26908922163475
CZ-2C R/B               
1 28480U 04046B   25326.34352147  .00000217  00000+0  95061-4 0  9997
2 28480  98.1970 242.9913 0140663 112.1199 249.4983 14.26927528 93199
ARIANE 5 R/B            
1 28499U 04049H   25326.37071172  .00001008  00000+0  11833-3 0  9992
2 28499  98.2520 125.9239 0084222 339.6997  20.0875 14.84948660129863
